{"fetched_at":"2026-07-10T18:07:59.515Z","source":"https://celestrak.org/NORAD/elements/gp.php?GROUP=stations&FORMAT=JSON","constellation":"crewed-vehicles","records":[{"OBJECT_NAME":"SOYUZ-MS 28","OBJECT_ID":"2025-275A","EPOCH":"2026-07-10T03:41:07.908864","CLASSIFICATION_TYPE":"U","MEAN_MOTION":15.48965714,"ECCENTRICITY":0.00066838,"INCLINATION":51.6302,"RA_OF_ASC_NODE":186.4276,"ARG_OF_PERICENTER":277.889,"MEAN_ANOMALY":82.1339,"EPHEMERIS_TYPE":0,"NORAD_CAT_ID":66664,"ELEMENT_SET_NO":999,"REV_AT_EPOCH":64570,"BSTAR":0.00011035045,"MEAN_MOTION_DOT":0.00005628,"MEAN_MOTION_DDOT":0},{"OBJECT_NAME":"CREW DRAGON 12","OBJECT_ID":"2026-031A","EPOCH":"2026-07-10T03:41:07.908864","CLASSIFICATION_TYPE":"U","MEAN_MOTION":15.48965714,"ECCENTRICITY":0.00066838,"INCLINATION":51.6302,"RA_OF_ASC_NODE":186.4276,"ARG_OF_PERICENTER":277.889,"MEAN_ANOMALY":82.1339,"EPHEMERIS_TYPE":0,"NORAD_CAT_ID":67796,"ELEMENT_SET_NO":999,"REV_AT_EPOCH":62809,"BSTAR":0.00011035045,"MEAN_MOTION_DOT":0.00005628,"MEAN_MOTION_DDOT":0},{"OBJECT_NAME":"SHENZHOU-23 (SZ-23)","OBJECT_ID":"2026-113A","EPOCH":"2026-07-10T05:09:52.576704","CLASSIFICATION_TYPE":"U","MEAN_MOTION":15.58015945,"ECCENTRICITY":0.0002669,"INCLINATION":41.4687,"RA_OF_ASC_NODE":182.0167,"ARG_OF_PERICENTER":284.9103,"MEAN_ANOMALY":75.144,"EPHEMERIS_TYPE":0,"NORAD_CAT_ID":69180,"ELEMENT_SET_NO":999,"REV_AT_EPOCH":29592,"BSTAR":0.000023426691,"MEAN_MOTION_DOT":0.00001478,"MEAN_MOTION_DDOT":0}]}
