SOYUZ-MS 28             
1 66664U 25275A   26191.15356376  .00005628  00000+0  11035-3 0  9997
2 66664  51.6302 186.4276 0006683 277.8890  82.1339 15.48965714645703
CREW DRAGON 12          
1 67796U 26031A   26191.15356376  .00005628  00000+0  11035-3 0  9995
2 67796  51.6302 186.4276 0006683 277.8890  82.1339 15.48965714628093
SHENZHOU-23 (SZ-23)     
1 69180U 26113A   26191.21519186  .00001478  00000+0  23427-4 0  9990
2 69180  41.4687 182.0167 0002669 284.9103  75.1440 15.58015945295922
